{
  "type": "FeatureCollection",
  "features": [
    {
      "type": "Feature",
      "properties": {
        "norad_id": 30274,
        "name": "FENGYUN 1C DEB",
        "group": "fengyun-1c-debris",
        "lat": -2.0923942751136795,
        "lon": -62.49343122263899,
        "alt_km": 720.2329563237854,
        "timestamp": "2025-12-14T22:38:41.033091+00:00",
        "meta_object_name": "FENGYUN 1C DEB",
        "meta_object_id": "1999-025YK",
        "meta_epoch": "2025-12-14T07:03:57.812832",
        "meta_mean_motion": 14.51676372,
        "meta_eccentricity": 0.00047693,
        "meta_inclination": 99.3006,
        "meta_ra_of_asc_node": 117.1319,
        "meta_arg_of_pericenter": 207.4846,
        "meta_mean_anomaly": 184.1752,
        "meta_ephemeris_type": 0,
        "meta_classification_type": "U",
        "meta_norad_cat_id": 30274,
        "meta_element_set_no": 999,
        "meta_rev_at_epoch": 98233,
        "meta_bstar": 0.002855638,
        "meta_mean_motion_dot": 0.00011424,
        "meta_mean_motion_ddot": 0,
        "tle_line1": "1 30274U 99025YK  25348.29441913  .00011424  00000+0  28556-2 0  9995",
        "tle_line2": "2 30274  99.3006 117.1319 0004769 207.4846 184.1752 14.51676372982330"
      },
      "geometry": {
        "type": "Point",
        "coordinates": [
          -62.49343122263899,
          -2.0923942751136795
        ]
      }
    },
    {
      "type": "Feature",
      "properties": {
        "norad_id": 30275,
        "name": "FENGYUN 1C DEB",
        "group": "fengyun-1c-debris",
        "lat": 78.70876535587037,
        "lon": 23.732918368153666,
        "alt_km": 736.9759439048939,
        "timestamp": "2025-12-14T22:38:41.033101+00:00",
        "meta_object_name": "FENGYUN 1C DEB",
        "meta_object_id": "1999-025YL",
        "meta_epoch": "2025-12-12T22:21:19.262880",
        "meta_mean_motion": 14.45299699,
        "meta_eccentricity": 0.00398774,
        "meta_inclination": 98.6281,
        "meta_ra_of_asc_node": 71.1947,
        "meta_arg_of_pericenter": 185.9532,
        "meta_mean_anomaly": 234.1953,
        "meta_ephemeris_type": 0,
        "meta_classification_type": "U",
        "meta_norad_cat_id": 30275,
        "meta_element_set_no": 999,
        "meta_rev_at_epoch": 98087,
        "meta_bstar": 0.0033635525,
        "meta_mean_motion_dot": 0.00011898,
        "meta_mean_motion_ddot": 0,
        "tle_line1": "1 30275U 99025YL  25346.93147295  .00011898  00000+0  33636-2 0  9991",
        "tle_line2": "2 30275  98.6281  71.1947 0039877 185.9532 234.1953 14.45299699980876"
      },
      "geometry": {
        "type": "Point",
        "coordinates": [
          23.732918368153666,
          78.70876535587037
        ]
      }
    },
    {
      "type": "Feature",
      "properties": {
        "norad_id": 30276,
        "name": "FENGYUN 1C DEB",
        "group": "fengyun-1c-debris",
        "lat": -59.32559584738705,
        "lon": -134.70269541583627,
        "alt_km": 825.0554163004972,
        "timestamp": "2025-12-14T22:38:41.033111+00:00",
        "meta_object_name": "FENGYUN 1C DEB",
        "meta_object_id": "1999-025YM",
        "meta_epoch": "2025-12-13T03:27:15.806880",
        "meta_mean_motion": 14.27030547,
        "meta_eccentricity": 0.00250832,
        "meta_inclination": 98.8588,
        "meta_ra_of_asc_node": 58.7196,
        "meta_arg_of_pericenter": 90.4236,
        "meta_mean_anomaly": 269.9818,
        "meta_ephemeris_type": 0,
        "meta_classification_type": "U",
        "meta_norad_cat_id": 30276,
        "meta_element_set_no": 999,
        "meta_rev_at_epoch": 97536,
        "meta_bstar": 0.0019435685,
        "meta_mean_motion_dot": 4.704e-05,
        "meta_mean_motion_ddot": 0,
        "tle_line1": "1 30276U 99025YM  25347.14393295  .00004704  00000+0  19436-2 0  9999",
        "tle_line2": "2 30276  98.8588  58.7196 0025083  90.4236 269.9818 14.27030547975360"
      },
      "geometry": {
        "type": "Point",
        "coordinates": [
          -134.70269541583627,
          -59.32559584738705
        ]
      }
    },
    {
      "type": "Feature",
      "properties": {
        "norad_id": 30277,
        "name": "FENGYUN 1C DEB",
        "group": "fengyun-1c-debris",
        "lat": -23.638926828421855,
        "lon": -124.34701590732386,
        "alt_km": 776.3551472652744,
        "timestamp": "2025-12-14T22:38:41.033121+00:00",
        "meta_object_name": "FENGYUN 1C DEB",
        "meta_object_id": "1999-025YN",
        "meta_epoch": "2025-12-14T03:08:35.161728",
        "meta_mean_motion": 14.13589421,
        "meta_eccentricity": 0.01241103,
        "meta_inclination": 98.9731,
        "meta_ra_of_asc_node": 58.8034,
        "meta_arg_of_pericenter": 173.8673,
        "meta_mean_anomaly": 216.4127,
        "meta_ephemeris_type": 0,
        "meta_classification_type": "U",
        "meta_norad_cat_id": 30277,
        "meta_element_set_no": 999,
        "meta_rev_at_epoch": 96809,
        "meta_bstar": 0.0017566602,
        "meta_mean_motion_dot": 3.521e-05,
        "meta_mean_motion_ddot": 0,
        "tle_line1": "1 30277U 99025YN  25348.13096252  .00003521  00000+0  17567-2 0  9992",
        "tle_line2": "2 30277  98.9731  58.8034 0124110 173.8673 216.4127 14.13589421968093"
      },
      "geometry": {
        "type": "Point",
        "coordinates": [
          -124.34701590732386,
          -23.638926828421855
        ]
      }
    },
    {
      "type": "Feature",
      "properties": {
        "norad_id": 30279,
        "name": "FENGYUN 1C DEB",
        "group": "fengyun-1c-debris",
        "lat": 69.74738475298794,
        "lon": 129.64734407421062,
        "alt_km": 688.4838089169962,
        "timestamp": "2025-12-14T22:38:41.033131+00:00",
        "meta_object_name": "FENGYUN 1C DEB",
        "meta_object_id": "1999-025YQ",
        "meta_epoch": "2025-12-14T07:32:13.989120",
        "meta_mean_motion": 14.23107635,
        "meta_eccentricity": 0.02198408,
        "meta_inclination": 99.1497,
        "meta_ra_of_asc_node": 283.093,
        "meta_arg_of_pericenter": 68.1863,
        "meta_mean_anomaly": 55.1212,
        "meta_ephemeris_type": 0,
        "meta_classification_type": "U",
        "meta_norad_cat_id": 30279,
        "meta_element_set_no": 999,
        "meta_rev_at_epoch": 97633,
        "meta_bstar": 0.00092038901,
        "meta_mean_motion_dot": 2.614e-05,
        "meta_mean_motion_ddot": 0,
        "tle_line1": "1 30279U 99025YQ  25348.31405080  .00002614  00000+0  92039-3 0  9997",
        "tle_line2": "2 30279  99.1497 283.0930 0219840  68.1863  55.1212 14.23107635976339"
      },
      "geometry": {
        "type": "Point",
        "coordinates": [
          129.64734407421062,
          69.74738475298794
        ]
      }
    },
    {
      "type": "Feature",
      "properties": {
        "norad_id": 30280,
        "name": "FENGYUN 1C DEB",
        "group": "fengyun-1c-debris",
        "lat": 39.354141719884595,
        "lon": -29.039328866113404,
        "alt_km": 882.4321478954898,
        "timestamp": "2025-12-14T22:38:41.033141+00:00",
        "meta_object_name": "FENGYUN 1C DEB",
        "meta_object_id": "1999-025YR",
        "meta_epoch": "2025-12-13T22:42:59.853312",
        "meta_mean_motion": 13.98330566,
        "meta_eccentricity": 0.00804329,
        "meta_inclination": 98.7752,
        "meta_ra_of_asc_node": 337.2841,
        "meta_arg_of_pericenter": 326.2217,
        "meta_mean_anomaly": 96.7352,
        "meta_ephemeris_type": 0,
        "meta_classification_type": "U",
        "meta_norad_cat_id": 30280,
        "meta_element_set_no": 999,
        "meta_rev_at_epoch": 96423,
        "meta_bstar": 0.00013343135,
        "meta_mean_motion_dot": 1.53e-06,
        "meta_mean_motion_ddot": 0,
        "tle_line1": "1 30280U 99025YR  25347.94652608  .00000153  00000+0  13343-3 0  9994",
        "tle_line2": "2 30280  98.7752 337.2841 0080432 326.2217  96.7352 13.98330566964231"
      },
      "geometry": {
        "type": "Point",
        "coordinates": [
          -29.039328866113404,
          39.354141719884595
        ]
      }
    },
    {
      "type": "Feature",
      "properties": {
        "norad_id": 30281,
        "name": "FENGYUN 1C DEB",
        "group": "fengyun-1c-debris",
        "lat": -2.890123353009926,
        "lon": -20.856031659328977,
        "alt_km": 873.0129461449305,
        "timestamp": "2025-12-14T22:38:41.033151+00:00",
        "meta_object_name": "FENGYUN 1C DEB",
        "meta_object_id": "1999-025YS",
        "meta_epoch": "2025-12-14T05:43:04.722240",
        "meta_mean_motion": 14.10476558,
        "meta_eccentricity": 0.00279768,
        "meta_inclination": 98.757,
        "meta_ra_of_asc_node": 338.0112,
        "meta_arg_of_pericenter": 232.6967,
        "meta_mean_anomaly": 145.0164,
        "meta_ephemeris_type": 0,
        "meta_classification_type": "U",
        "meta_norad_cat_id": 30281,
        "meta_element_set_no": 999,
        "meta_rev_at_epoch": 97242,
        "meta_bstar": 0.00027330603,
        "meta_mean_motion_dot": 4.45e-06,
        "meta_mean_motion_ddot": 0,
        "tle_line1": "1 30281U 99025YS  25348.23824910  .00000445  00000+0  27331-3 0  9991",
        "tle_line2": "2 30281  98.7570 338.0112 0027976 232.6967 145.0164 14.10476558972422"
      },
      "geometry": {
        "type": "Point",
        "coordinates": [
          -20.856031659328977,
          -2.890123353009926
        ]
      }
    }
  ]
}